[{"OBJECT_NAME":"STARLINK-3641","OBJECT_ID":"2022-017W","EPOCH":"2026-03-09T23:26:44.761344","MEAN_MOTION":15.08815298,"ECCENTRICITY":0.00021368,"INCLINATION":53.2196,"RA_OF_ASC_NODE":347.8328,"ARG_OF_PERICENTER":45.198,"MEAN_ANOMALY":314.9186,"EPHEMERIS_TYPE":0,"CLASSIFICATION_TYPE":"U","NORAD_CAT_ID":51788,"ELEMENT_SET_NO":999,"REV_AT_EPOCH":22396,"BSTAR":6.3918065e-5,"MEAN_MOTION_DOT":7.29e-6,"MEAN_MOTION_DDOT":0},{"OBJECT_NAME":"COSMOS 2251 DEB","OBJECT_ID":"1993-036ZW","EPOCH":"2026-03-09T08:08:26.165472","MEAN_MOTION":15.02749495,"ECCENTRICITY":0.00499096,"INCLINATION":74.0135,"RA_OF_ASC_NODE":183.9715,"ARG_OF_PERICENTER":290.3808,"MEAN_ANOMALY":69.2023,"EPHEMERIS_TYPE":0,"CLASSIFICATION_TYPE":"U","NORAD_CAT_ID":34752,"ELEMENT_SET_NO":999,"REV_AT_EPOCH":91149,"BSTAR":0.001245658,"MEAN_MOTION_DOT":0.00017109,"MEAN_MOTION_DDOT":0}]
